{
  "type": "FeatureCollection",
  "schemaVersion": 1,
  "features": [
    {
      "type": "Feature",
      "geometry": {
        "type": "Point",
        "coordinates": [
          -1.651,
          53.822
        ]
      },
      "properties": {
        "id": "rodley-nature-reserve",
        "name": "Rodley Nature Reserve",
        "mapLabel": "Rodley",
        "region": "West Yorkshire",
        "country": "GB",
        "summary": "Black-headed gulls, mute swans and a grey wagtail photographed at Rodley Nature Reserve.",
        "locationPrecision": "approximate",
        "habitats": [
          "Wetland"
        ],
        "demo": false,
        "cover": "photos/rodley-nature-reserve/2026-08-01/thumbs/black-headed-gull.webp",
        "speciesIds": [
          "chroicocephalus-ridibundus",
          "cygnus-olor",
          "motacilla-cinerea"
        ],
        "speciesCount": 3,
        "photoPaths": [
          "photos/rodley-nature-reserve/2026-08-01/black-headed-gull.webp",
          "photos/rodley-nature-reserve/2026-08-01/grey-wagtail.webp",
          "photos/rodley-nature-reserve/2026-08-01/mute-swan.webp"
        ],
        "photoCount": 3,
        "visitCount": 1,
        "latestVisit": "2026-08-01",
        "years": [
          "2026"
        ],
        "searchText": "Black-headed Gull 红嘴鸥 Chroicocephalus ridibundus Mute Swan 疣鼻天鹅 Cygnus olor Grey Wagtail 灰鹡鸰 Motacilla cinerea"
      }
    },
    {
      "type": "Feature",
      "geometry": {
        "type": "Point",
        "coordinates": [
          -1.552,
          53.807
        ]
      },
      "properties": {
        "id": "university-of-leeds",
        "name": "University of Leeds",
        "mapLabel": "University of Leeds",
        "region": "West Yorkshire",
        "country": "GB",
        "summary": "Mallard photographed on the University of Leeds campus.",
        "locationPrecision": "approximate",
        "habitats": [
          "Campus"
        ],
        "demo": false,
        "cover": "photos/university-of-leeds/2026-08-09/thumbs/mallard.webp",
        "speciesIds": [
          "anas-platyrhynchos"
        ],
        "speciesCount": 1,
        "photoPaths": [
          "photos/university-of-leeds/2026-08-09/mallard.webp"
        ],
        "photoCount": 1,
        "visitCount": 1,
        "latestVisit": "2026-08-09",
        "years": [
          "2026"
        ],
        "searchText": "Mallard 绿头鸭 Anas platyrhynchos"
      }
    },
    {
      "type": "Feature",
      "geometry": {
        "type": "Point",
        "coordinates": [
          -3.38,
          56.2
        ]
      },
      "properties": {
        "id": "demo-loch-leven",
        "name": "Loch Leven",
        "mapLabel": "Loch Leven",
        "region": "Scotland",
        "country": "GB",
        "summary": "A sample Scottish location. The pin and photograph demonstrate the map; they are not a personal sighting record.",
        "locationPrecision": "approximate",
        "habitats": [
          "Loch"
        ],
        "demo": true,
        "cover": "photos/demo/thumbs/homepage-birds.webp",
        "speciesIds": [],
        "speciesCount": 0,
        "photoPaths": [
          "photos/demo/homepage-birds.webp"
        ],
        "photoCount": 1,
        "visitCount": 1,
        "latestVisit": null,
        "years": [],
        "searchText": "Unidentified birds 鸟种待确认 "
      }
    },
    {
      "type": "Feature",
      "geometry": {
        "type": "Point",
        "coordinates": [
          -0.169,
          54.145
        ]
      },
      "properties": {
        "id": "demo-bempton-cliffs",
        "name": "RSPB Bempton Cliffs",
        "mapLabel": "Bempton",
        "region": "East Yorkshire",
        "country": "GB",
        "summary": "A sample coastal entry. This is a layout demonstration, not a record of a visit to Bempton Cliffs.",
        "locationPrecision": "approximate",
        "habitats": [
          "Sea cliffs"
        ],
        "demo": true,
        "cover": "photos/demo/thumbs/homepage-birds.webp",
        "speciesIds": [],
        "speciesCount": 0,
        "photoPaths": [
          "photos/demo/homepage-birds.webp"
        ],
        "photoCount": 1,
        "visitCount": 1,
        "latestVisit": null,
        "years": [],
        "searchText": "Unidentified birds 鸟种待确认 "
      }
    },
    {
      "type": "Feature",
      "geometry": {
        "type": "Point",
        "coordinates": [
          -1.399,
          53.753
        ]
      },
      "properties": {
        "id": "demo-st-aidans",
        "name": "RSPB St Aidan’s",
        "mapLabel": "St Aidan’s",
        "region": "West Yorkshire",
        "country": "GB",
        "summary": "A sample wetland entry near Leeds. Add real visits and photographs to replace this demonstration.",
        "locationPrecision": "approximate",
        "habitats": [
          "Wetland"
        ],
        "demo": true,
        "cover": "photos/demo/thumbs/homepage-birds.webp",
        "speciesIds": [],
        "speciesCount": 0,
        "photoPaths": [
          "photos/demo/homepage-birds.webp"
        ],
        "photoCount": 1,
        "visitCount": 1,
        "latestVisit": null,
        "years": [],
        "searchText": "Unidentified birds 鸟种待确认 "
      }
    },
    {
      "type": "Feature",
      "geometry": {
        "type": "Point",
        "coordinates": [
          -0.134,
          51.503
        ]
      },
      "properties": {
        "id": "demo-st-jamess-park",
        "name": "St James’s Park",
        "mapLabel": "London",
        "region": "London",
        "country": "GB",
        "summary": "A sample city-park entry. This demonstrates how an urban location can sit alongside reserve visits.",
        "locationPrecision": "approximate",
        "habitats": [
          "Urban park"
        ],
        "demo": true,
        "cover": "photos/demo/thumbs/homepage-birds.webp",
        "speciesIds": [],
        "speciesCount": 0,
        "photoPaths": [
          "photos/demo/homepage-birds.webp"
        ],
        "photoCount": 1,
        "visitCount": 1,
        "latestVisit": null,
        "years": [],
        "searchText": "Unidentified birds 鸟种待确认 "
      }
    }
  ]
}
